[{"OBJECT_NAME":"STARLINK-5638","OBJECT_ID":"2023-014AM","EPOCH":"2026-03-09T10:55:05.496672","MEAN_MOTION":14.98340882,"ECCENTRICITY":0.0003103,"INCLINATION":69.9988,"RA_OF_ASC_NODE":85.187,"ARG_OF_PERICENTER":270.8133,"MEAN_ANOMALY":89.2671,"EPHEMERIS_TYPE":0,"CLASSIFICATION_TYPE":"U","NORAD_CAT_ID":55426,"ELEMENT_SET_NO":999,"REV_AT_EPOCH":17152,"BSTAR":8.5342334e-5,"MEAN_MOTION_DOT":9.26e-6,"MEAN_MOTION_DDOT":0},{"OBJECT_NAME":"CZ-6A DEB","OBJECT_ID":"2024-140RN","EPOCH":"2026-03-09T09:36:23.350464","MEAN_MOTION":14.99974811,"ECCENTRICITY":0.0047719,"INCLINATION":88.1445,"RA_OF_ASC_NODE":217.6461,"ARG_OF_PERICENTER":172.1525,"MEAN_ANOMALY":188.0467,"EPHEMERIS_TYPE":0,"CLASSIFICATION_TYPE":"U","NORAD_CAT_ID":61168,"ELEMENT_SET_NO":999,"REV_AT_EPOCH":8322,"BSTAR":0.0063622011,"MEAN_MOTION_DOT":0.00081758,"MEAN_MOTION_DDOT":0}]
